{
  "links" : {
    "next" : "https://api.nasa.gov/neo/rest/v1/feed?start_date=2012-08-23&end_date=2012-08-23&detailed=true&api_key=t0TVs3DtDT2H8Oy2Zy8m2eVrNsAVKAexjcZXUckd",
    "prev" : "https://api.nasa.gov/neo/rest/v1/feed?start_date=2012-08-21&end_date=2012-08-21&detailed=true&api_key=t0TVs3DtDT2H8Oy2Zy8m2eVrNsAVKAexjcZXUckd",
    "self" : "https://api.nasa.gov/neo/rest/v1/feed?start_date=2012-08-22&end_date=2012-08-22&detailed=true&api_key=t0TVs3DtDT2H8Oy2Zy8m2eVrNsAVKAexjcZXUckd"
  },
  "element_count" : 8,
  "near_earth_objects" : {
    "2012-08-22" : [ {
      "links" : {
        "self" : "https://api.nasa.gov/neo/rest/v1/neo/3725122?api_key=t0TVs3DtDT2H8Oy2Zy8m2eVrNsAVKAexjcZXUckd"
      },
      "neo_reference_id" : "3725122",
      "name" : "(2015 OR78)",
      "nasa_jpl_url" : "http://ssd.jpl.nasa.gov/sbdb.cgi?sstr=3725122",
      "absolute_magnitude_h" : 21.8,
      "estimated_diameter" : {
        "kilometers" : {
          "estimated_diameter_min" : 0.1160259082,
          "estimated_diameter_max" : 0.2594418179
        },
        "meters" : {
          "estimated_diameter_min" : 116.0259082094,
          "estimated_diameter_max" : 259.4418179074
        },
        "miles" : {
          "estimated_diameter_min" : 0.0720951346,
          "estimated_diameter_max" : 0.1612096218
        },
        "feet" : {
          "estimated_diameter_min" : 380.6624406898,
          "estimated_diameter_max" : 851.1870938635
        }
      },
      "is_potentially_hazardous_asteroid" : false,
      "close_approach_data" : [ {
        "close_approach_date" : "2012-08-22",
        "epoch_date_close_approach" : 1345618800000,
        "relative_velocity" : {
          "kilometers_per_second" : "1.9832109755",
          "kilometers_per_hour" : "7139.5595117919",
          "miles_per_hour" : "4436.2446310909"
        },
        "miss_distance" : {
          "astronomical" : "0.4224099381",
          "lunar" : "164.3174743652",
          "kilometers" : "63191628",
          "miles" : "39265460"
        },
        "orbiting_body" : "Earth"
      } ],
      "orbital_data" : {
        "orbit_id" : "11",
        "orbit_determination_date" : "2017-04-06 08:32:39",
        "orbit_uncertainty" : "4",
        "minimum_orbit_intersection" : ".233705",
        "jupiter_tisserand_invariant" : "3.636",
        "epoch_osculation" : "2458000.5",
        "eccentricity" : ".4086932879949957",
        "semi_major_axis" : "2.096303046720971",
        "inclination" : "5.177857628182458",
        "ascending_node_longitude" : "84.6946406417603",
        "orbital_period" : "1108.611872177627",
        "perihelion_distance" : "1.23955806192265",
        "perihelion_argument" : "222.8023477351155",
        "aphelion_distance" : "2.953048031519292",
        "perihelion_time" : "2458336.313416403511",
        "mean_anomaly" : "250.9511679071268",
        "mean_motion" : ".3247304210199898",
        "equinox" : "J2000"
      }
    }, {
      "links" : {
        "self" : "https://api.nasa.gov/neo/rest/v1/neo/3742874?api_key=t0TVs3DtDT2H8Oy2Zy8m2eVrNsAVKAexjcZXUckd"
      },
      "neo_reference_id" : "3742874",
      "name" : "(2016 CG137)",
      "nasa_jpl_url" : "http://ssd.jpl.nasa.gov/sbdb.cgi?sstr=3742874",
      "absolute_magnitude_h" : 24.2,
      "estimated_diameter" : {
        "kilometers" : {
          "estimated_diameter_min" : 0.0384197891,
          "estimated_diameter_max" : 0.0859092601
        },
        "meters" : {
          "estimated_diameter_min" : 38.4197891064,
          "estimated_diameter_max" : 85.9092601232
        },
        "miles" : {
          "estimated_diameter_min" : 0.0238729428,
          "estimated_diameter_max" : 0.0533815229
        },
        "feet" : {
          "estimated_diameter_min" : 126.0491808919,
          "estimated_diameter_max" : 281.8545369825
        }
      },
      "is_potentially_hazardous_asteroid" : false,
      "close_approach_data" : [ {
        "close_approach_date" : "2012-08-22",
        "epoch_date_close_approach" : 1345618800000,
        "relative_velocity" : {
          "kilometers_per_second" : "11.354324844",
          "kilometers_per_hour" : "40875.5694385328",
          "miles_per_hour" : "25398.4892436261"
        },
        "miss_distance" : {
          "astronomical" : "0.4113873908",
          "lunar" : "160.0296936035",
          "kilometers" : "61542676",
          "miles" : "38240848"
        },
        "orbiting_body" : "Earth"
      } ],
      "orbital_data" : {
        "orbit_id" : "9",
        "orbit_determination_date" : "2017-04-06 08:28:28",
        "orbit_uncertainty" : "7",
        "minimum_orbit_intersection" : ".041089",
        "jupiter_tisserand_invariant" : "5.148",
        "epoch_osculation" : "2458000.5",
        "eccentricity" : ".2592344989537914",
        "semi_major_axis" : "1.216042838481182",
        "inclination" : "21.52457170779861",
        "ascending_node_longitude" : "324.9167397089336",
        "orbital_period" : "489.8033357594471",
        "perihelion_distance" : ".9008025825411664",
        "perihelion_argument" : "248.1439255585748",
        "aphelion_distance" : "1.531283094421197",
        "perihelion_time" : "2457982.818223185646",
        "mean_anomaly" : "12.99590915055285",
        "mean_motion" : ".734988869444539",
        "equinox" : "J2000"
      }
    } ]
  }
}